{"type":"FeatureCollection","features":[{"type":"Feature","properties":{"planId":"t50-plan-2026-06-22-a","status":"PLANNED \u2014 EXECUTION UNVERIFIED","executionVerified":false,"kind":"planned-route"},"geometry":{"type":"LineString","coordinates":[[152.372673941653,-30.8095843987606],[152.372832679451,-30.8092315045372],[152.37277278586,-30.8092146874064],[152.372612581945,-30.8095707291847],[152.372551326965,-30.809557149512],[152.372712996999,-30.809198050112],[152.37265299874,-30.8091813228585],[152.372490072002,-30.8095435698104],[152.372428712346,-30.8095299001479],[152.372593105212,-30.8091646855093],[152.372533211704,-30.8091479582005],[152.372367666836,-30.8095163203887],[152.372306411925,-30.8095027406008],[152.372473422926,-30.809131230864]]}},{"type":"Feature","properties":{"planId":"t50-plan-2026-06-22-a","status":"PLANNED \u2014 EXECUTION UNVERIFIED","executionVerified":false,"kind":"planned-spray-section"},"geometry":{"type":"MultiLineString","coordinates":[[[152.372673941653,-30.8095843987606],[152.372832679451,-30.8092315045372]],[[152.37277278586,-30.8092146874064],[152.372612581945,-30.8095707291847]],[[152.372551326965,-30.809557149512],[152.372712996999,-30.809198050112]],[[152.37265299874,-30.8091813228585],[152.372490072002,-30.8095435698104]],[[152.372428712346,-30.8095299001479],[152.372593105212,-30.8091646855093]],[[152.372533211704,-30.8091479582005],[152.372367666836,-30.8095163203887]],[[152.372306411925,-30.8095027406008],[152.372473422926,-30.809131230864]]]}},{"type":"Feature","properties":{"planId":"t50-plan-2026-06-22-a","status":"PLANNED \u2014 EXECUTION UNVERIFIED","executionVerified":false,"kind":"transit-no-spray"},"geometry":{"type":"MultiLineString","coordinates":[[[152.372832679451,-30.8092315045372],[152.37277278586,-30.8092146874064]],[[152.372612581945,-30.8095707291847],[152.372551326965,-30.809557149512]],[[152.372712996999,-30.809198050112],[152.37265299874,-30.8091813228585]],[[152.372490072002,-30.8095435698104],[152.372428712346,-30.8095299001479]],[[152.372593105212,-30.8091646855093],[152.372533211704,-30.8091479582005]],[[152.372367666836,-30.8095163203887],[152.372306411925,-30.8095027406008]]]}},{"type":"Feature","properties":{"planId":"t50-plan-2026-06-22-a","status":"PLANNED \u2014 EXECUTION UNVERIFIED","executionVerified":false,"kind":"field-boundary","basis":"prescription-raster-extent"},"geometry":{"type":"Polygon","coordinates":[[[152.37006530077758,-30.81043688522133],[152.3737514631259,-30.81043688522133],[152.3737514631259,-30.808017433353996],[152.37006530077758,-30.808017433353996],[152.37006530077758,-30.81043688522133]]]}},{"type":"Feature","properties":{"planId":"t50-plan-2026-06-22-a","status":"PLANNED \u2014 EXECUTION UNVERIFIED","executionVerified":false,"kind":"obstacle","association":"spatial-proximity"},"geometry":{"type":"MultiPolygon","coordinates":[[[[152.37227127817,-30.80977157926],[152.37225311415,-30.80977157926],[152.37225311415,-30.80975590122],[152.37227127817,-30.80975590122],[152.37227127817,-30.80977157926]]],[[[152.37270980950998,-30.809538648380002],[152.37269943006999,-30.809538648380002],[152.37269943006999,-30.80952521006],[152.37270980950998,-30.80952521006],[152.37270980950998,-30.809538648380002]]],[[[152.37219083751,-30.80912877962],[152.37217526835,-30.80912877962],[152.37217526835,-30.80911758102],[152.37219343236998,-30.80911758102],[152.37219083751,-30.80912877962]]],[[[152.37225830386998,-30.80907278662],[152.37223754498999,-30.80907278662],[152.37224013985,-30.80905710858],[152.37225830386998,-30.80905710858],[152.37225830386998,-30.80907278662]]]]}}]}
